[{"OBJECT_NAME":"HULIANWANG DIGUI-113","OBJECT_ID":"2025-285J","EPOCH":"2026-03-05T05:04:20.563104","MEAN_MOTION":13.29330903,"ECCENTRICITY":1.07e-5,"INCLINATION":50.0098,"RA_OF_ASC_NODE":158.5757,"ARG_OF_PERICENTER":295.8366,"MEAN_ANOMALY":64.2495,"EPHEMERIS_TYPE":0,"CLASSIFICATION_TYPE":"U","NORAD_CAT_ID":66923,"ELEMENT_SET_NO":999,"REV_AT_EPOCH":1223,"BSTAR":-0.000184,"MEAN_MOTION_DOT":-2.09e-6,"MEAN_MOTION_DDOT":0},{"OBJECT_NAME":"HULIANWANG DIGUI-114","OBJECT_ID":"2025-287A","EPOCH":"2026-03-05T02:41:31.747200","MEAN_MOTION":13.24415705,"ECCENTRICITY":0.000197,"INCLINATION":86.4975,"RA_OF_ASC_NODE":317.5561,"ARG_OF_PERICENTER":80.6826,"MEAN_ANOMALY":279.4531,"EPHEMERIS_TYPE":0,"CLASSIFICATION_TYPE":"U","NORAD_CAT_ID":66953,"ELEMENT_SET_NO":999,"REV_AT_EPOCH":1156,"BSTAR":0.00021489,"MEAN_MOTION_DOT":1.07e-6,"MEAN_MOTION_DDOT":0},{"OBJECT_NAME":"HULIANWANG DIGUI-115","OBJECT_ID":"2025-287B","EPOCH":"2026-03-05T04:19:24.862368","MEAN_MOTION":13.24415774,"ECCENTRICITY":0.0002054,"INCLINATION":86.499,"RA_OF_ASC_NODE":317.5422,"ARG_OF_PERICENTER":80.055,"MEAN_ANOMALY":280.0815,"EPHEMERIS_TYPE":0,"CLASSIFICATION_TYPE":"U","NORAD_CAT_ID":66954,"ELEMENT_SET_NO":999,"REV_AT_EPOCH":1157,"BSTAR":0.00020036,"MEAN_MOTION_DOT":1.01e-6,"MEAN_MOTION_DDOT":0},{"OBJECT_NAME":"HULIANWANG DIGUI-116","OBJECT_ID":"2025-287C","EPOCH":"2026-03-05T04:08:32.817984","MEAN_MOTION":13.24415858,"ECCENTRICITY":0.000206,"INCLINATION":86.493,"RA_OF_ASC_NODE":317.4813,"ARG_OF_PERICENTER":80.0403,"MEAN_ANOMALY":280.0964,"EPHEMERIS_TYPE":0,"CLASSIFICATION_TYPE":"U","NORAD_CAT_ID":66955,"ELEMENT_SET_NO":999,"REV_AT_EPOCH":1157,"BSTAR":0.0001841,"MEAN_MOTION_DOT":9.4e-7,"MEAN_MOTION_DDOT":0},{"OBJECT_NAME":"HULIANWANG DIGUI-117","OBJECT_ID":"2025-287D","EPOCH":"2026-03-05T03:57:43.495200","MEAN_MOTION":13.24414017,"ECCENTRICITY":0.0001273,"INCLINATION":86.4991,"RA_OF_ASC_NODE":317.5355,"ARG_OF_PERICENTER":21.5021,"MEAN_ANOMALY":338.6166,"EPHEMERIS_TYPE":0,"CLASSIFICATION_TYPE":"U","NORAD_CAT_ID":66956,"ELEMENT_SET_NO":999,"REV_AT_EPOCH":1157,"BSTAR":0.00018039,"MEAN_MOTION_DOT":9.2e-7,"MEAN_MOTION_DDOT":0},{"OBJECT_NAME":"HULIANWANG DIGUI-118","OBJECT_ID":"2025-287E","EPOCH":"2026-03-05T03:46:49.372896","MEAN_MOTION":13.24415339,"ECCENTRICITY":0.0002038,"INCLINATION":86.4967,"RA_OF_ASC_NODE":317.5094,"ARG_OF_PERICENTER":79.5823,"MEAN_ANOMALY":280.5541,"EPHEMERIS_TYPE":0,"CLASSIFICATION_TYPE":"U","NORAD_CAT_ID":66957,"ELEMENT_SET_NO":999,"REV_AT_EPOCH":1157,"BSTAR":0.00015958,"MEAN_MOTION_DOT":8.3e-7,"MEAN_MOTION_DDOT":0},{"OBJECT_NAME":"HULIANWANG DIGUI-119","OBJECT_ID":"2025-295A","EPOCH":"2026-03-04T20:23:33.095040","MEAN_MOTION":13.49182432,"ECCENTRICITY":2.3e-5,"INCLINATION":50.0043,"RA_OF_ASC_NODE":40.984,"ARG_OF_PERICENTER":333.6345,"MEAN_ANOMALY":26.4524,"EPHEMERIS_TYPE":0,"CLASSIFICATION_TYPE":"U","NORAD_CAT_ID":67059,"ELEMENT_SET_NO":999,"REV_AT_EPOCH":1160,"BSTAR":0.00010811,"MEAN_MOTION_DOT":-6.3e-7,"MEAN_MOTION_DDOT":0},{"OBJECT_NAME":"HULIANWANG DIGUI-120","OBJECT_ID":"2025-295B","EPOCH":"2026-03-04T00:31:35.164992","MEAN_MOTION":13.50312018,"ECCENTRICITY":5.33e-5,"INCLINATION":50.0045,"RA_OF_ASC_NODE":43.9402,"ARG_OF_PERICENTER":232.7248,"MEAN_ANOMALY":127.3584,"EPHEMERIS_TYPE":0,"CLASSIFICATION_TYPE":"U","NORAD_CAT_ID":67060,"ELEMENT_SET_NO":999,"REV_AT_EPOCH":1149,"BSTAR":0.00010563,"MEAN_MOTION_DOT":-6.4e-7,"MEAN_MOTION_DDOT":0},{"OBJECT_NAME":"HULIANWANG DIGUI-121","OBJECT_ID":"2025-295C","EPOCH":"2026-03-04T11:21:13.534848","MEAN_MOTION":13.49344229,"ECCENTRICITY":5.13e-5,"INCLINATION":50.001,"RA_OF_ASC_NODE":42.2948,"ARG_OF_PERICENTER":230.7953,"MEAN_ANOMALY":129.2883,"EPHEMERIS_TYPE":0,"CLASSIFICATION_TYPE":"U","NORAD_CAT_ID":67061,"ELEMENT_SET_NO":999,"REV_AT_EPOCH":1155,"BSTAR":0.00010685,"MEAN_MOTION_DOT":-6.3e-7,"MEAN_MOTION_DDOT":0},{"OBJECT_NAME":"HULIANWANG DIGUI-122","OBJECT_ID":"2025-295D","EPOCH":"2026-03-04T16:21:12.711168","MEAN_MOTION":13.49722832,"ECCENTRICITY":4.94e-5,"INCLINATION":50.0036,"RA_OF_ASC_NODE":41.4278,"ARG_OF_PERICENTER":322.7161,"MEAN_ANOMALY":37.3686,"EPHEMERIS_TYPE":0,"CLASSIFICATION_TYPE":"U","NORAD_CAT_ID":67062,"ELEMENT_SET_NO":999,"REV_AT_EPOCH":1158,"BSTAR":0.0001069,"MEAN_MOTION_DOT":-6.3e-7,"MEAN_MOTION_DDOT":0},{"OBJECT_NAME":"HULIANWANG DIGUI-123","OBJECT_ID":"2025-295E","EPOCH":"2026-03-04T19:44:16.959264","MEAN_MOTION":13.49679503,"ECCENTRICITY":3.25e-5,"INCLINATION":50.0046,"RA_OF_ASC_NODE":40.8418,"ARG_OF_PERICENTER":308.9409,"MEAN_ANOMALY":51.1443,"EPHEMERIS_TYPE":0,"CLASSIFICATION_TYPE":"U","NORAD_CAT_ID":67063,"ELEMENT_SET_NO":999,"REV_AT_EPOCH":1160,"BSTAR":0.0001387,"MEAN_MOTION_DOT":-4.3e-7,"MEAN_MOTION_DDOT":0},{"OBJECT_NAME":"HULIANWANG DIGUI-124","OBJECT_ID":"2025-295F","EPOCH":"2026-03-04T10:42:21.731040","MEAN_MOTION":13.49900205,"ECCENTRICITY":0.000142,"INCLINATION":49.9987,"RA_OF_ASC_NODE":42.1543,"ARG_OF_PERICENTER":1.0031,"MEAN_ANOMALY":359.0853,"EPHEMERIS_TYPE":0,"CLASSIFICATION_TYPE":"U","NORAD_CAT_ID":67064,"ELEMENT_SET_NO":999,"REV_AT_EPOCH":1155,"BSTAR":0.00011056,"MEAN_MOTION_DOT":-6.1e-7,"MEAN_MOTION_DDOT":0},{"OBJECT_NAME":"HULIANWANG DIGUI-125","OBJECT_ID":"2025-295G","EPOCH":"2026-03-04T08:46:15.250656","MEAN_MOTION":13.50013531,"ECCENTRICITY":0.000199,"INCLINATION":50.0019,"RA_OF_ASC_NODE":42.3803,"ARG_OF_PERICENTER":28.9203,"MEAN_ANOMALY":331.1788,"EPHEMERIS_TYPE":0,"CLASSIFICATION_TYPE":"U","NORAD_CAT_ID":67065,"ELEMENT_SET_NO":999,"REV_AT_EPOCH":1154,"BSTAR":0.00011015,"MEAN_MOTION_DOT":-6.1e-7,"MEAN_MOTION_DDOT":0},{"OBJECT_NAME":"HULIANWANG DIGUI-126","OBJECT_ID":"2025-295H","EPOCH":"2026-03-04T19:15:26.158176","MEAN_MOTION":13.49977054,"ECCENTRICITY":8.36e-5,"INCLINATION":50.0001,"RA_OF_ASC_NODE":40.6902,"ARG_OF_PERICENTER":53.3551,"MEAN_ANOMALY":306.7407,"EPHEMERIS_TYPE":0,"CLASSIFICATION_TYPE":"U","NORAD_CAT_ID":67066,"ELEMENT_SET_NO":999,"REV_AT_EPOCH":1160,"BSTAR":7.6126e-5,"MEAN_MOTION_DOT":-8.3e-7,"MEAN_MOTION_DDOT":0},{"OBJECT_NAME":"HULIANWANG DIGUI-127","OBJECT_ID":"2025-295J","EPOCH":"2026-03-04T06:34:08.705568","MEAN_MOTION":13.49908062,"ECCENTRICITY":0.0001308,"INCLINATION":50.0053,"RA_OF_ASC_NODE":42.5703,"ARG_OF_PERICENTER":40.573,"MEAN_ANOMALY":319.5249,"EPHEMERIS_TYPE":0,"CLASSIFICATION_TYPE":"U","NORAD_CAT_ID":67067,"ELEMENT_SET_NO":999,"REV_AT_EPOCH":1153,"BSTAR":-0.00029115,"MEAN_MOTION_DOT":-3.17e-6,"MEAN_MOTION_DDOT":0},{"OBJECT_NAME":"HULIANWANG DIGUI-128","OBJECT_ID":"2025-311A","EPOCH":"2026-03-05T03:27:34.354368","MEAN_MOTION":13.34168672,"ECCENTRICITY":9.56e-5,"INCLINATION":50.0066,"RA_OF_ASC_NODE":128.7172,"ARG_OF_PERICENTER":8.7924,"MEAN_ANOMALY":351.2967,"EPHEMERIS_TYPE":0,"CLASSIFICATION_TYPE":"U","NORAD_CAT_ID":67236,"ELEMENT_SET_NO":999,"REV_AT_EPOCH":950,"BSTAR":0.00016271,"MEAN_MOTION_DOT":-4.4e-7,"MEAN_MOTION_DDOT":0}]
