HULIANWANG DIGUI-113    
1 66923U 25285J   26064.21134911 -.00000209  00000+0 -18400-3 0  9996
2 66923  50.0098 158.5757 0000107 295.8366  64.2495 13.29330903 12236
HULIANWANG DIGUI-114    
1 66953U 25287A   26064.11217300  .00000107  00000+0  21489-3 0  9990
2 66953  86.4975 317.5561 0001970  80.6826 279.4531 13.24415705 11561
HULIANWANG DIGUI-115    
1 66954U 25287B   26064.18014887  .00000101  00000+0  20036-3 0  9994
2 66954  86.4990 317.5422 0002054  80.0550 280.0815 13.24415774 11577
HULIANWANG DIGUI-116    
1 66955U 25287C   26064.17260206  .00000094  00000+0  18410-3 0  9996
2 66955  86.4930 317.4813 0002060  80.0403 280.0964 13.24415858 11577
HULIANWANG DIGUI-117    
1 66956U 25287D   26064.16508675  .00000092  00000+0  18039-3 0  9996
2 66956  86.4991 317.5355 0001273  21.5021 338.6166 13.24414017 11578
HULIANWANG DIGUI-118    
1 66957U 25287E   26064.15751589  .00000083  00000+0  15958-3 0  9997
2 66957  86.4967 317.5094 0002038  79.5823 280.5541 13.24415339 11575
HULIANWANG DIGUI-119    
1 67059U 25295A   26063.84968860 -.00000063  00000+0  10811-3 0  9999
2 67059  50.0043  40.9840 0000230 333.6345  26.4524 13.49182432 11606
HULIANWANG DIGUI-120    
1 67060U 25295B   26063.02193478 -.00000064  00000+0  10563-3 0  9991
2 67060  50.0045  43.9402 0000533 232.7248 127.3584 13.50312018 11495
HULIANWANG DIGUI-121    
1 67061U 25295C   26063.47307332 -.00000063  00000+0  10685-3 0  9991
2 67061  50.0010  42.2948 0000513 230.7953 129.2883 13.49344229 11551
HULIANWANG DIGUI-122    
1 67062U 25295D   26063.68139712 -.00000063  00000+0  10690-3 0  9996
2 67062  50.0036  41.4278 0000494 322.7161  37.3686 13.49722832 11581
HULIANWANG DIGUI-123    
1 67063U 25295E   26063.82241851 -.00000043  00000+0  13870-3 0  9992
2 67063  50.0046  40.8418 0000325 308.9409  51.1443 13.49679503 11600
HULIANWANG DIGUI-124    
1 67064U 25295F   26063.44608485 -.00000061  00000+0  11056-3 0  9995
2 67064  49.9987  42.1543 0001420   1.0031 359.0853 13.49900205 11550
HULIANWANG DIGUI-125    
1 67065U 25295G   26063.36545429 -.00000061  00000+0  11015-3 0  9990
2 67065  50.0019  42.3803 0001990  28.9203 331.1788 13.50013531 11548
HULIANWANG DIGUI-126    
1 67066U 25295H   26063.80238609 -.00000083  00000+0  76126-4 0  9998
2 67066  50.0001  40.6902 0000836  53.3551 306.7407 13.49977054 11607
HULIANWANG DIGUI-127    
1 67067U 25295J   26063.27371187 -.00000317  00000+0 -29115-3 0  9995
2 67067  50.0053  42.5703 0001308  40.5730 319.5249 13.49908062 11538
HULIANWANG DIGUI-128    
1 67236U 25311A   26064.14414762 -.00000044  00000+0  16271-3 0  9991
2 67236  50.0066 128.7172 0000956   8.7924 351.2967 13.34168672  9509
